{
"type": "FeatureCollection",
"name": "lefelci_4326",
"stroke": "#ff0000",
"stroke-width": 3,
"stroke-opacity": 1,
"fill": "#ffffff",
"fill-opacity": 0.3,
"crs": { "type": "name", "properties": { "name": "urn:ogc:def:crs:OGC:1.3:CRS84" } },
"features": [
{ "type": "Feature", "properties": { "fid": 1, "fondo": "le felci" }, "geometry": { "type": "Polygon", "coordinates": [ [ [ 11.922450421877747, 44.206660358052559 ], [ 11.922470175877169, 44.206659852268963 ], [ 11.922912758026678, 44.206672972337635 ], [ 11.923155860297554, 44.206776784694746 ], [ 11.923388636502398, 44.207015351888309 ], [ 11.92388089201393, 44.207345083462002 ], [ 11.924163392605255, 44.20755792238139 ], [ 11.92471690956593, 44.207751589964182 ], [ 11.925113410078623, 44.207863693789612 ], [ 11.925594793223135, 44.207973620581022 ], [ 11.925816089247105, 44.207980174625561 ], [ 11.925984036524302, 44.207939190085192 ], [ 11.926140452792536, 44.208008538885487 ], [ 11.926309610069302, 44.207991975728291 ], [ 11.926583045139598, 44.208021644416661 ], [ 11.926959548323872, 44.208073122336572 ], [ 11.927163868491222, 44.208080109083703 ], [ 11.927343948841157, 44.207940999853122 ], [ 11.92742338201432, 44.207828924631812 ], [ 11.927622858522682, 44.207738223255269 ], [ 11.927632600446699, 44.207739020220089 ], [ 11.927575358667672, 44.20776321088352 ], [ 11.927836313916028, 44.208024117814908 ], [ 11.927292657348545, 44.209009352587479 ], [ 11.927428289409109, 44.209243741065443 ], [ 11.927498426057831, 44.209546709349958 ], [ 11.927501839758898, 44.209893511223555 ], [ 11.92738338065803, 44.210005571840973 ], [ 11.927238378622194, 44.210138135312853 ], [ 11.927002439328012, 44.210382053019984 ], [ 11.926934096090555, 44.210671228241438 ], [ 11.926936034915787, 44.210988334531869 ], [ 11.926820492245824, 44.211437298006288 ], [ 11.926761493718473, 44.211637033347692 ], [ 11.926742800580719, 44.211815912909913 ], [ 11.926629733175101, 44.212036856833024 ], [ 11.926513230707105, 44.212188510848144 ], [ 11.926374108587195, 44.212439855914091 ], [ 11.926137175819955, 44.212663975000254 ], [ 11.925881083036666, 44.212779562391987 ], [ 11.925423944942175, 44.213009324580078 ], [ 11.925173243601431, 44.213233794545026 ], [ 11.924878833222936, 44.213132316982495 ], [ 11.924773668580805, 44.212956611615112 ], [ 11.924651432440527, 44.212714443495372 ], [ 11.924676654315112, 44.212685340511861 ], [ 11.924313692176691, 44.212652496660958 ], [ 11.92395051084182, 44.212527310189508 ], [ 11.92348123360493, 44.212319255013412 ], [ 11.923219316360228, 44.212179246022885 ], [ 11.922740977909893, 44.211788023301345 ], [ 11.922436649016875, 44.211477928393059 ], [ 11.92239483789378, 44.211320055234516 ], [ 11.922282979476199, 44.211040854161631 ], [ 11.92226783674985, 44.211050958809651 ], [ 11.921962618805324, 44.211009217117393 ], [ 11.921779301909512, 44.210924709715407 ], [ 11.921649075154377, 44.210799198570086 ], [ 11.921737084007189, 44.210628456612305 ], [ 11.921854575727897, 44.210496604366945 ], [ 11.921887535364695, 44.210327271472437 ], [ 11.921945080022255, 44.210097842434834 ], [ 11.921786841121815, 44.209963137401637 ], [ 11.921792766652743, 44.209804407673914 ], [ 11.92183875340695, 44.209619874613416 ], [ 11.921970052361447, 44.209210157191151 ], [ 11.921956338202575, 44.208932996665354 ], [ 11.922045860368542, 44.208514437459861 ], [ 11.922137293655641, 44.208412985388904 ], [ 11.922243957689178, 44.208340876692326 ], [ 11.922196305305118, 44.208213252004008 ], [ 11.922217460773869, 44.208083865694697 ], [ 11.922291702836608, 44.207913475713163 ], [ 11.922542393929051, 44.207689012212988 ], [ 11.922589601696039, 44.207529225367189 ], [ 11.922575885435629, 44.207252064912844 ], [ 11.922638813597391, 44.207131520038821 ], [ 11.922601493712612, 44.20693425300923 ], [ 11.922450165775283, 44.206660616030241 ], [ 11.922450421877747, 44.206660358052559 ] ] ] } }
]
}
